		  TDR Cartesian                         TDR Cartesian  
-----------------------------------       --------------------------------
 X    =       -9551384.28                 X    =        -2911261.93
 Y    =       14595718.00  feet           Y    =         4448774.85  meter
 Z    =      -13830678.22                 Z    =        -4215590.72
 XDOT =     -20812.382214                 XDOT =       -6343.614099
 YDOT =      -2230.785972  feet/sec       YDOT =        -679.943564  meter/sec
 ZDOT =      12025.111704                 ZDOT =        3665.254048


The mean element set is posted at the UTC for which position is
just north of the next ascending node relative to the above
vector time


TWO LINE MEAN ELEMENT SET

ISS
1 25544U 98067A   16234.89131443  .00016717  00000-0  10270-3 0  9107
2 25544  51.6421  90.1683 0001690 157.8579 202.2648 15.55092883 15204


Satellite: ISS
Catalog Number: 25544
Epoch time:      16234.89131443   =   yrday.fracday
Element set:     910
Inclination:       51.6421  deg
RA of node:        90.1683  deg
Eccentricity:     .0001690     
Arg of perigee:   157.8579  deg
Mean anomaly:     202.2648  deg
Mean motion:   15.55092883  rev/day
Decay rate:    1.67170E-04  rev/day^2
Epoch rev:            1520
Checksum:              305


Coasting Arc #12 (Orbit 1535)
---------------------------------------

Vector Time (GMT): 2016/235/21:10:00.000
Vector Time (MET): N/A
Weight (LBS)     : 930011.2

		  M50 Cartesian                         M50 Keplerian  
-----------------------------------       --------------------------------
 X    =       -2669871.18                 A    =         6783486.81  meter
 Y    =       -5613311.95  meter          E    =           .0014366
 Z    =        2698296.90                 I    =           52.02170
 XDOT =       3672.501913                 Wp   =          107.08716
 YDOT =      -4263.638467  meter/sec      RA   =           84.37188  deg
 ZDOT =      -5217.195763                 TA   =           42.57030
										  MA   =           42.45902
										  Ha   =            219.783  n.mi
										  Hp   =            212.985

		  M50 Cartesian                         J2K Cartesian  
-----------------------------------       --------------------------------
 X    =       -8759419.87                 X    =        -2620010.37
 Y    =      -18416377.79  feet           Y    =        -5642889.26  meter
 Z    =        8852680.13                 Z    =         2685448.91
 XDOT =      12048.890792                 XDOT =        3745.248807
 YDOT =     -13988.315179  feet/sec       YDOT =       -4222.163709  meter/sec
 ZDOT =     -17116.784000                 ZDOT =       -5199.178771

		  TDR Cartesian                         TDR Cartesian  
-----------------------------------       --------------------------------
 X    =       14728799.39                 X    =         4489338.06
 Y    =      -14139541.50  feet           Y    =        -4309732.25  meter
 Z    =        8797510.30                 Z    =         2681481.14
 XDOT =      16062.655622                 XDOT =        4895.897434
 YDOT =       6093.174416  feet/sec       YDOT =        1857.199562  meter/sec
 ZDOT =     -17037.269042                 ZDOT =       -5192.959604


The mean element set is posted at the UTC for which position is
just north of the next ascending node relative to the above
vector time


TWO LINE MEAN ELEMENT SET

ISS
1 25544U 98067A   16235.91952284  .00016717  00000-0  10270-3 0  9116
2 25544  51.6427  85.0353 0001516 161.8309 198.2898 15.55089167 15369


Satellite: ISS
Catalog Number: 25544
Epoch time:      16235.91952284   =   yrday.fracday
Element set:     911
Inclination:       51.6427  deg
RA of node:        85.0353  deg
Eccentricity:     .0001516     
Arg of perigee:   161.8309  deg
Mean anomaly:     198.2898  deg
Mean motion:   15.55089167  rev/day
Decay rate:    1.67170E-04  rev/day^2
Epoch rev:            1536
Checksum:              329


Coasting Arc #13 (Orbit 1550)
---------------------------------------

Vector Time (GMT): 2016/236/21:10:00.000
Vector Time (MET): N/A
Weight (LBS)     : 930011.2

		  M50 Cartesian                         M50 Keplerian  
-----------------------------------       --------------------------------
 X    =        1842530.58                 A    =         6786417.40  meter
 Y    =        6478765.99  meter          E    =           .0009696
 Z    =        -796397.42                 I    =           52.02699
 XDOT =      -4378.134794                 Wp   =           45.94860
 YDOT =       1973.643031  meter/sec      RA   =           79.41964  deg
 ZDOT =       5978.123022                 TA   =          305.48528
										  MA   =          305.57571
										  Ha   =            219.766  n.mi
										  Hp   =            213.099

		  M50 Cartesian                         J2K Cartesian  
-----------------------------------       --------------------------------
 X    =        6045047.83                 X    =         1773814.98
 Y    =       21255793.94  feet           Y    =         6498986.15  meter
 Z    =       -2612852.41                 Z    =         -787614.16
 XDOT =     -14363.959298                 XDOT =       -4428.918223
 YDOT =       6475.206795  feet/sec       YDOT =        1924.400184  meter/sec
 ZDOT =      19613.264509                 ZDOT =        5956.731760

		  TDR Cartesian                         TDR Cartesian  
-----------------------------------       --------------------------------
 X    =      -18072293.91                 X    =        -5508435.18
 Y    =       12725437.52  feet           Y    =         3878713.36  meter
 Z    =       -2575618.36                 Z    =         -785048.48
 XDOT =      -9960.911634                 XDOT =       -3036.085866
 YDOT =     -10230.196300  feet/sec       YDOT =       -3118.163832  meter/sec
 ZDOT =      19519.399546                 ZDOT =        5949.512982


The mean element set is posted at the UTC for which position is
just north of the next ascending node relative to the above
vector time


TWO LINE MEAN ELEMENT SET

ISS
1 25544U 98067A   16236.88346333  .00016717  00000-0  10270-3 0  9126
2 25544  51.6428  80.2234 0001273 162.5981 197.5216 15.55039291 15515


Satellite: ISS
Catalog Number: 25544
Epoch time:      16236.88346333   =   yrday.fracday
Element set:     912
Inclination:       51.6428  deg
RA of node:        80.2234  deg
Eccentricity:     .0001273     
Arg of perigee:   162.5981  deg
Mean anomaly:     197.5216  deg
Mean motion:   15.55039291  rev/day
Decay rate:    1.67170E-04  rev/day^2
Epoch rev:            1551
Checksum:              305


Coasting Arc #14 (Orbit 1557)
---------------------------------------

Vector Time (GMT): 2016/237/07:44:17.840
Vector Time (MET): N/A
Weight (LBS)     : 929483.8

		  M50 Cartesian                         M50 Keplerian  
-----------------------------------       --------------------------------
 X    =        4290425.23                 A    =         6780086.76  meter
 Y    =        2408648.88  meter          E    =           .0007914
 Z    =       -4672548.20                 I    =           51.99533
 XDOT =       -754.443863                 Wp   =          124.43907
 YDOT =       7037.048426  meter/sec      RA   =           77.21797  deg
 ZDOT =       2933.955874                 TA   =          174.64345
										  MA   =          174.63498
										  Ha   =            219.796  n.mi
										  Hp   =            215.940

		  M50 Cartesian                         J2K Cartesian  
-----------------------------------       --------------------------------
 X    =       14076198.26                 X    =         4285869.38
 Y    =        7902391.35  feet           Y    =         2456601.59  meter
 Z    =      -15329882.55                 Z    =        -4651717.64
 XDOT =      -2475.209525                 XDOT =        -847.329695
 YDOT =      23087.429218  feet/sec       YDOT =        7028.092515  meter/sec
 ZDOT =       9625.839481                 ZDOT =        2930.065041

		  TDR Cartesian                         TDR Cartesian  
-----------------------------------       --------------------------------
 X    =        8332181.89                 X    =         2539649.04
 Y    =      -13925956.24  feet           Y    =        -4244631.46  meter
 Z    =      -15239256.32                 Z    =        -4644925.33
 XDOT =      21984.081592                 XDOT =        6700.748069
 YDOT =       2636.938660  feet/sec       YDOT =         803.738903  meter/sec
 ZDOT =       9607.562131                 ZDOT =        2928.384938


The mean element set is posted at the UTC for which position is
just north of the next ascending node relative to the above
vector time


TWO LINE MEAN ELEMENT SET

ISS
1 25544U 98067A   16237.33330380  .00016717  00000-0  10270-3 0  9133
2 25544  51.6435  77.9783 0003436 253.7683 106.3092 15.54165114 15580


Satellite: ISS
Catalog Number: 25544
Epoch time:      16237.33330380   =   yrday.fracday
Element set:     913
Inclination:       51.6435  deg
RA of node:        77.9783  deg
Eccentricity:     .0003436     
Arg of perigee:   253.7683  deg
Mean anomaly:     106.3092  deg
Mean motion:   15.54165114  rev/day
Decay rate:    1.67170E-04  rev/day^2
Epoch rev:            1558
Checksum:              307


Coasting Arc #15 (Orbit 1573)
---------------------------------------

Vector Time (GMT): 2016/238/07:44:17.840
Vector Time (MET): N/A
Weight (LBS)     : 929483.8

